GLOBALSTAR M001         
1 25162U 98008A   24182.22804505 -.00000072  00000+0  18791-3 0  9992
2 25162  52.0038 277.6126 0001756 208.5044 168.0313 12.38187150200223
GLOBALSTAR M004         
1 25163U 98008B   24182.19515940 -.00000071  00000+0  18341-3 0  9991
2 25163  52.0011  47.9702 0002245 220.8079 293.8809 12.63363458217299
GLOBALSTAR M002         
1 25164U 98008C   24181.93138794 -.00000069  00000+0  14104-3 0  9991
2 25164  52.0033  43.4217 0000649 191.9236 168.1569 11.61502757143137
GLOBALSTAR M003         
1 25165U 98008D   24182.17773969  .00000026  00000+0  12345-2 0  9994
2 25165  51.9899  63.4458 0007568 308.8819 221.5030 12.12014692190624
GLOBALSTAR M014         
1 25306U 98023A   24182.49403478 -.00000048  00000+0  54977-3 0  9991
2 25306  51.9863 332.6298 0001586  90.8463 347.3481 11.65469288150155
GLOBALSTAR M006         
1 25307U 98023B   24182.51090501 -.00000125  00000+0 -10073-2 0  9999
2 25307  51.9965  11.9164 0003728 178.6562 205.3540 11.58163162176198
GLOBALSTAR M015         
1 25308U 98023C   24182.22442546 -.00000129  00000+0 -12722-2 0  9995
2 25308  51.9823  94.9681 0012129 169.3352   0.1209 11.48852234154009
GLOBALSTAR M008         
1 25309U 98023D   24181.61027184 -.00000067  00000+0  23258-3 0  9992
2 25309  51.9949 140.2436 0002306 147.1844  24.2934 12.36044834194247
